{
  "type": "FeatureCollection",
  "features": [
    {
      "type": "Feature",
      "properties": {
        "norad_id": 44333,
        "name": "AT&T T-16",
        "group": "intelsat",
        "lat": -0.027269500849019922,
        "lon": -15.00441370115305,
        "alt_km": 35789.912693397586,
        "timestamp": "2025-12-22T23:36:20.367956+00:00",
        "meta_object_name": "AT&T T-16",
        "meta_object_id": "2019-034A",
        "meta_epoch": "2025-12-22T11:52:42.160224",
        "meta_mean_motion": 1.00269647,
        "meta_eccentricity": 8.575e-05,
        "meta_inclination": 0.0179,
        "meta_ra_of_asc_node": 59.7457,
        "meta_arg_of_pericenter": 78.451,
        "meta_mean_anomaly": 30.4232,
        "meta_ephemeris_type": 0,
        "meta_classification_type": "U",
        "meta_norad_cat_id": 44333,
        "meta_element_set_no": 999,
        "meta_rev_at_epoch": 2386,
        "meta_bstar": 0,
        "meta_mean_motion_dot": -9.3e-07,
        "meta_mean_motion_ddot": 0,
        "tle_line1": "1 44333U 19034A   25356.49493241 -.00000093  00000+0  00000+0 0  9992",
        "tle_line2": "2 44333   0.0179  59.7457 0000857  78.4510  30.4232  1.00269647 23866"
      },
      "geometry": {
        "type": "Point",
        "coordinates": [
          -15.00441370115305,
          -0.027269500849019922
        ]
      }
    },
    {
      "type": "Feature",
      "properties": {
        "norad_id": 44476,
        "name": "INTELSAT 39 (IS-39)",
        "group": "intelsat",
        "lat": 0.014658257459240603,
        "lon": 147.82456287167813,
        "alt_km": 35781.00935081273,
        "timestamp": "2025-12-22T23:36:20.367968+00:00",
        "meta_object_name": "INTELSAT 39 (IS-39)",
        "meta_object_id": "2019-049B",
        "meta_epoch": "2025-12-22T12:14:38.401152",
        "meta_mean_motion": 1.0027593,
        "meta_eccentricity": 9.227e-05,
        "meta_inclination": 0.0182,
        "meta_ra_of_asc_node": 338.4161,
        "meta_arg_of_pericenter": 170.6824,
        "meta_mean_anomaly": 187.8346,
        "meta_ephemeris_type": 0,
        "meta_classification_type": "U",
        "meta_norad_cat_id": 44476,
        "meta_element_set_no": 999,
        "meta_rev_at_epoch": 2335,
        "meta_bstar": 0,
        "meta_mean_motion_dot": 5.4e-07,
        "meta_mean_motion_ddot": 0,
        "tle_line1": "1 44476U 19049B   25356.51016668  .00000054  00000+0  00000+0 0  9999",
        "tle_line2": "2 44476   0.0182 338.4161 0000922 170.6824 187.8346  1.00275930 23352"
      },
      "geometry": {
        "type": "Point",
        "coordinates": [
          147.82456287167813,
          0.014658257459240603
        ]
      }
    },
    {
      "type": "Feature",
      "properties": {
        "norad_id": 46114,
        "name": "GALAXY 30 (G-30)",
        "group": "intelsat",
        "lat": -0.031679741359284745,
        "lon": -39.11929695540407,
        "alt_km": 35781.57560893699,
        "timestamp": "2025-12-22T23:36:20.367980+00:00",
        "meta_object_name": "GALAXY 30 (G-30)",
        "meta_object_id": "2020-056C",
        "meta_epoch": "2025-12-22T13:04:11.368128",
        "meta_mean_motion": 1.00270116,
        "meta_eccentricity": 0.00020135,
        "meta_inclination": 0.018,
        "meta_ra_of_asc_node": 8.4088,
        "meta_arg_of_pericenter": 257.8637,
        "meta_mean_anomaly": 256.1286,
        "meta_ephemeris_type": 0,
        "meta_classification_type": "U",
        "meta_norad_cat_id": 46114,
        "meta_element_set_no": 999,
        "meta_rev_at_epoch": 1952,
        "meta_bstar": 0,
        "meta_mean_motion_dot": 5.9e-07,
        "meta_mean_motion_ddot": 0,
        "tle_line1": "1 46114U 20056C   25356.54457602  .00000059  00000+0  00000+0 0  9995",
        "tle_line2": "2 46114   0.0180   8.4088 0002013 257.8637 256.1286  1.00270116 19524"
      },
      "geometry": {
        "type": "Point",
        "coordinates": [
          -39.11929695540407,
          -0.031679741359284745
        ]
      }
    },
    {
      "type": "Feature",
      "properties": {
        "norad_id": 54026,
        "name": "GALAXY 33 (G-33)",
        "group": "intelsat",
        "lat": -0.010445294115779505,
        "lon": -47.12463242139166,
        "alt_km": 35781.61853632245,
        "timestamp": "2025-12-22T23:36:20.367992+00:00",
        "meta_object_name": "GALAXY 33 (G-33)",
        "meta_object_id": "2022-128A",
        "meta_epoch": "2025-12-22T11:35:15.906336",
        "meta_mean_motion": 1.00271669,
        "meta_eccentricity": 0.00015964,
        "meta_inclination": 0.0184,
        "meta_ra_of_asc_node": 305.6803,
        "meta_arg_of_pericenter": 318.2802,
        "meta_mean_anomaly": 228.1459,
        "meta_ephemeris_type": 0,
        "meta_classification_type": "U",
        "meta_norad_cat_id": 54026,
        "meta_element_set_no": 999,
        "meta_rev_at_epoch": 1197,
        "meta_bstar": 0,
        "meta_mean_motion_dot": 1.01e-06,
        "meta_mean_motion_ddot": 0,
        "tle_line1": "1 54026U 22128A   25356.48282299  .00000101  00000+0  00000+0 0  9997",
        "tle_line2": "2 54026   0.0184 305.6803 0001596 318.2802 228.1459  1.00271669 11973"
      },
      "geometry": {
        "type": "Point",
        "coordinates": [
          -47.12463242139166,
          -0.010445294115779505
        ]
      }
    },
    {
      "type": "Feature",
      "properties": {
        "norad_id": 54027,
        "name": "GALAXY 34 (G-34)",
        "group": "intelsat",
        "lat": -0.02451402126649488,
        "lon": -43.082636955667944,
        "alt_km": 35782.22845463254,
        "timestamp": "2025-12-22T23:36:20.368003+00:00",
        "meta_object_name": "GALAXY 34 (G-34)",
        "meta_object_id": "2022-128B",
        "meta_epoch": "2025-12-22T11:37:11.794656",
        "meta_mean_motion": 1.0026916,
        "meta_eccentricity": 0.0001778,
        "meta_inclination": 0.0236,
        "meta_ra_of_asc_node": 339.9212,
        "meta_arg_of_pericenter": 284.087,
        "meta_mean_anomaly": 232.6265,
        "meta_ephemeris_type": 0,
        "meta_classification_type": "U",
        "meta_norad_cat_id": 54027,
        "meta_element_set_no": 999,
        "meta_rev_at_epoch": 1214,
        "meta_bstar": 0,
        "meta_mean_motion_dot": 0,
        "meta_mean_motion_ddot": 0,
        "tle_line1": "1 54027U 22128B   25356.48416429  .00000000  00000+0  00000+0 0  9990",
        "tle_line2": "2 54027   0.0236 339.9212 0001778 284.0870 232.6265  1.00269160 12141"
      },
      "geometry": {
        "type": "Point",
        "coordinates": [
          -43.082636955667944,
          -0.02451402126649488
        ]
      }
    },
    {
      "type": "Feature",
      "properties": {
        "norad_id": 54243,
        "name": "GALAXY 31 (G-31)",
        "group": "intelsat",
        "lat": -0.00015164298041319449,
        "lon": -35.134090797419276,
        "alt_km": 35781.7854331929,
        "timestamp": "2025-12-22T23:36:20.368029+00:00",
        "meta_object_name": "GALAXY 31 (G-31)",
        "meta_object_id": "2022-153A",
        "meta_epoch": "2025-12-22T10:46:17.208192",
        "meta_mean_motion": 1.00271243,
        "meta_eccentricity": 0.00014211,
        "meta_inclination": 0.0305,
        "meta_ra_of_asc_node": 248.2472,
        "meta_arg_of_pericenter": 33.9442,
        "meta_mean_anomaly": 209.631,
        "meta_ephemeris_type": 0,
        "meta_classification_type": "U",
        "meta_norad_cat_id": 54243,
        "meta_element_set_no": 999,
        "meta_rev_at_epoch": 536,
        "meta_bstar": 0,
        "meta_mean_motion_dot": 3.5e-07,
        "meta_mean_motion_ddot": 0,
        "tle_line1": "1 54243U 22153A   25356.44881028  .00000035  00000+0  00000+0 0  9993",
        "tle_line2": "2 54243   0.0305 248.2472 0001421  33.9442 209.6310  1.00271243  5365"
      },
      "geometry": {
        "type": "Point",
        "coordinates": [
          -35.134090797419276,
          -0.00015164298041319449
        ]
      }
    },
    {
      "type": "Feature",
      "properties": {
        "norad_id": 54244,
        "name": "GALAXY 32 (G-32)",
        "group": "intelsat",
        "lat": -0.002791216950804909,
        "lon": -5.134370528452027,
        "alt_km": 35779.75036510945,
        "timestamp": "2025-12-22T23:36:20.368044+00:00",
        "meta_object_name": "GALAXY 32 (G-32)",
        "meta_object_id": "2022-153B",
        "meta_epoch": "2025-12-22T07:35:47.616576",
        "meta_mean_motion": 1.00270236,
        "meta_eccentricity": 0.00019823,
        "meta_inclination": 0.0109,
        "meta_ra_of_asc_node": 353.9495,
        "meta_arg_of_pericenter": 325.6757,
        "meta_mean_anomaly": 154.4441,
        "meta_ephemeris_type": 0,
        "meta_classification_type": "U",
        "meta_norad_cat_id": 54244,
        "meta_element_set_no": 999,
        "meta_rev_at_epoch": 1137,
        "meta_bstar": 0,
        "meta_mean_motion_dot": -1.52e-06,
        "meta_mean_motion_ddot": 0,
        "tle_line1": "1 54244U 22153B   25356.31652334 -.00000152  00000+0  00000+0 0  9997",
        "tle_line2": "2 54244   0.0109 353.9495 0001982 325.6757 154.4441  1.00270236 11370"
      },
      "geometry": {
        "type": "Point",
        "coordinates": [
          -5.134370528452027,
          -0.002791216950804909
        ]
      }
    }
  ]
}